ONEWEB-0136             
1 47282U 20100AA  25015.23623251 -.00000306  00000+0 -88489-3 0  9993
2 47282  87.8870  93.7737 0002145 116.3572 243.7777 13.12440840196725
ONEWEB-0137             
1 47283U 20100AB  25015.27032743  .00000460  00000+0  12436-2 0  9995
2 47283  87.8865  93.7820 0001907  99.9181 260.2163 13.12446010196638
ONEWEB-0138             
1 47284U 20100AC  25014.71554890 -.00000293  00000+0 -84995-3 0  9992
2 47284  87.8865  93.9046 0001886 108.4754 251.6580 13.12444417196646
ONEWEB-0139             
1 47285U 20100AD  25015.21205482  .00000402  00000+0  10828-2 0  9992
2 47285  87.8871  93.7873 0001833 104.9470 255.1862 13.12440470196780
ONEWEB-0140             
1 47286U 20100AE  25015.24272384 -.00000311  00000+0 -90059-3 0  9997
2 47286  87.8866  93.7756 0001857 108.0243 252.1088 13.12443386196746
ONEWEB-0141             
1 47287U 20100AF  25015.28801941 -.00000179  00000+0 -53202-3 0  9990
2 47287  87.8865  93.7816 0001865  99.2360 260.8979 13.12436960196748
ONEWEB-0142             
1 47288U 20100AG  25014.72285911  .00000090  00000+0  21359-3 0  9990
2 47288  87.8866  93.8749 0002078 102.4128 257.7233 13.12443512196662
ONEWEB-0143             
1 47289U 20100AH  25015.28652985  .00000447  00000+0  12069-2 0  9995
2 47289  87.8866  93.7855 0001816 104.5363 255.5967 13.12441344196710
